[{"OBJECT_NAME":"STARLINK-34004","OBJECT_ID":"2025-098R","EPOCH":"2026-03-09T21:20:21.238080","MEAN_MOTION":14.98333476,"ECCENTRICITY":0.0002577,"INCLINATION":70.0004,"RA_OF_ASC_NODE":273.8907,"ARG_OF_PERICENTER":262.3532,"MEAN_ANOMALY":97.7334,"EPHEMERIS_TYPE":0,"CLASSIFICATION_TYPE":"U","NORAD_CAT_ID":63941,"ELEMENT_SET_NO":999,"REV_AT_EPOCH":4658,"BSTAR":0.00046685287,"MEAN_MOTION_DOT":5.482e-5,"MEAN_MOTION_DDOT":0},{"OBJECT_NAME":"PEGASUS DEB","OBJECT_ID":"1994-029ABU","EPOCH":"2026-03-08T09:55:10.155936","MEAN_MOTION":14.19535939,"ECCENTRICITY":0.03610507,"INCLINATION":81.685,"RA_OF_ASC_NODE":93.5097,"ARG_OF_PERICENTER":18.2292,"MEAN_ANOMALY":45.8022,"EPHEMERIS_TYPE":0,"CLASSIFICATION_TYPE":"U","NORAD_CAT_ID":24817,"ELEMENT_SET_NO":999,"REV_AT_EPOCH":50638,"BSTAR":0.0011603059,"MEAN_MOTION_DOT":4.738e-5,"MEAN_MOTION_DDOT":0}]
